CORVUS BC1              
1 42847U 17042Y   26021.41411046  .00009410  00000+0  65960-3 0  9993
2 42847  97.3902 189.4319 0011405 227.9484 132.0774 15.05358032465000
MAKERSAT 0              
1 43016U 17073D   26020.39140099  .00035182  00000+0  11204-2 0  9995
2 43016  97.4853 262.2743 0125029  76.1342 285.3768 15.25111363443884
SIRION PATHFINDER-2     
1 43759U 18099B   26020.57789212  .00013538  00000+0  77172-3 0  9992
2 43759  97.4479  73.1348 0010637  91.0786 269.1664 15.12856193390292
CORVUS BC4              
1 43767U 18099K   26021.38638331  .00011037  00000+0  66274-3 0  9999
2 43767  97.4291  68.6318 0009583 139.5540 220.6404 15.11034617390228
SPACEBEE-7              
1 43816U 18099BL  26021.20773829  .00279638  00000+0  22993-2 0  9999
2 43816  97.4644 104.1190 0002732 336.1779  23.9356 15.69564492391691
SHIELDS 1               
1 43850U 18104B   26020.84977368  .00460193  89452-4  90638-3 0  9990
2 43850  84.9979 234.8586 0002802  32.8075 327.3382 16.00060177396870
M2 PATHFINDER           
1 45727U 20037E   26021.50889232  .00006677  00000+0  48979-3 0  9990
2 45727  97.8139 211.1322 0010084 292.4674  67.5483 15.03800455303441
NETSAT-4                
1 46504U 20068U   26021.46258756  .00023712  00000+0  62883-3 0  9993
2 46504  97.8617  18.5172 0008189 115.2458 244.9635 15.38294692293179
NETSAT-3                
1 46505U 20068V   26021.47619920  .00023346  00000+0  64762-3 0  9990
2 46505  97.8647  16.9739 0007597 127.4505 232.7430 15.36906730293106
NETSAT-1                
1 46506U 20068W   26021.50247678  .00018067  00000+0  61689-3 0  9991
2 46506  97.8705  12.9163 0006817 142.3400 217.8317 15.30359211292830
NETSAT-2                
1 46507U 20068X   26021.44602152  .00030019  00000+0  77539-3 0  9999
2 46507  97.8628  18.0204 0006030 132.9525 227.2225 15.39070951293113
WILDTRACKCUBE-SIMBA     
1 47941U 21022K   26021.89202769  .00202779  00000+0  11609-2 0  9991
2 47941  97.4025 300.0175 0005606 143.3516 216.8135 15.78247967268390
GREENCUBE (IO-117)      
1 53109U 22080E   26021.26349756 -.00000003  00000+0  00000+0 0  9995
2 53109  70.1614 349.3347 0009148 319.7233  40.2749  6.42583229 82627
SITRO-AIS 5 (KATYS)     
1 57176U 23091L   26021.54441787  .00023273  00000+0  91480-3 0  9993
2 57176  97.5275  84.2904 0011020 258.5038 101.4962 15.25624632141954
SITRO-AIS 6 (CHIRKIN)   
1 57192U 23091AC  26020.98054861  .00027389  00000+0  11420-2 0  9998
2 57192  97.5284  83.4874 0010884 261.3386  98.6618 15.23610651141852
SITRO-AIS 8 (ANOKHIN)   
1 57193U 23091AD  26021.52797911  .00025283  00000+0  93377-3 0  9993
2 57193  97.5270  85.3374 0010383 255.6899 104.3187 15.27681622142029
SITRO-AIS 7 (FARTUSHNIY)
1 57194U 23091AE  26021.48352954  .00013193  00000+0  55587-3 0  9991
2 57194  97.5278  83.8796 0010625 260.2962  99.7075 15.23417710141923
SITRO-AIS 10 (BURDAEV)  
1 57199U 23091AK  26021.51526954  .00034599  00000+0  10984-2 0  9997
2 57199  97.5286  89.0596 0006787 230.5359 129.5283 15.32563708142256
SITRO-AIS 9 (SHCHUKIN)  
1 57201U 23091AM  26021.50257968  .00032880  00000+0  10552-2 0  9998
2 57201  97.5286  88.8722 0006792 230.5223 129.5418 15.32228028142246
SITRO-AIS 12 (SMIRENNIY)
1 57204U 23091AQ  26021.51840071  .00035054  00000+0  11162-2 0  9999
2 57204  97.5296  89.2731 0006802 223.5877 136.4827 15.32465480142262
SITRO-AIS 11 (SHEFFER)  
1 57208U 23091AU  26021.50145580  .00032032  00000+0  10108-2 0  9997
2 57208  97.5292  89.4237 0006705 222.9315 137.1404 15.32774082142278
SITRO-AIS 25            
1 59066U 24039R   26021.51739405  .00013572  00000+0  10748-2 0  9998
2 59066  95.3961 134.3687 0150066 120.1926 241.4260 14.92093665102841
SITRO-AIS 26            
1 59067U 24039S   26021.56708758  .00012026  00000+0  95722-3 0  9990
2 59067  95.3962 134.3287 0150126 120.4670 241.1481 14.91919394102842
SITRO-AIS 27            
1 59068U 24039T   26021.57672727  .00012933  00000+0  10206-2 0  9998
2 59068  95.3961 134.5427 0149381 119.3671 242.2567 14.92299303102860
SITRO-AIS 28            
1 59071U 24039U   26021.55756171  .00012403  00000+0  97865-3 0  9995
2 59071  95.3965 134.5693 0149143 119.2899 242.3326 14.92337434102862
GRBBETA                 
1 60237U 24128C   26021.35067440  .00009838  00000+0  67749-3 0  9998
2 60237  61.9916  10.9359 0054698 104.2176 256.5001 15.05194200 84156
OOV-CUBE (TUBSAT-30)    
1 60240U 24128F   26021.43124807  .00005757  00000+0  43890-3 0  9999
2 60240  61.9962  16.9975 0057287 102.2652 258.4862 15.01881194 84062
ROBUSTA-3A (MEDITERRAN*)
1 60243U 24128J   26021.50204462  .00015951  00000+0  97996-3 0  9999
2 60243  61.9884   6.0174 0054998  98.3720 262.3615 15.09007754 84268
LASARSAT                
1 62391U 24247Q   26021.15819924  .00054514  00000+0  14809-2 0  9992
2 62391  44.9782   2.6974 0001017   7.2627 352.8274 15.36849183 60621
CROCUBE                 
1 62394U 24247T   26021.21873120  .00056342  00000+0  14882-2 0  9992
2 62394  44.9766   1.3907 0002063   8.9364 351.1559 15.37703156 60646
